QIANFAN-17              
1 60395U 24140S   26011.58184800  .00000149  00000+0  21170-3 0  9995
2 60395  88.9790 296.3535 0016296 115.0243 245.2602 13.50984619 72162
QIANFAN-18              
1 60396U 24140T   26011.56125868  .00000147  00000+0  20864-3 0  9990
2 60396  88.9783 295.8871 0015945  99.1903 261.1052 13.50984675 71557
QIANFAN-19              
1 61552U 24185A   26011.58299701  .00000435  00000+0  22011-3 0  9990
2 61552  88.9797  74.5249 0006505 190.1284 169.9773 14.14330468 73883
QIANFAN-20              
1 61553U 24185B   26011.58888443  .00000399  00000+0  22309-3 0  9997
2 61553  88.9796  74.8783 0004319 236.2152 123.8621 14.08878366 73693
QIANFAN-21              
1 61554U 24185C   26011.64383970  .00000577  00000+0  25141-3 0  9995
2 61554  88.9711  73.4799 0008412 262.7098  97.3138 14.22653875 74224
QIANFAN-22              
1 61555U 24185D   26011.59942609  .00000141  00000+0  11071-3 0  9994
2 61555  88.9780  75.9782 0004443 258.4233 101.6439 13.86315572 73076
QIANFAN-23              
1 61556U 24185E   26011.58702296  .00000388  00000+0  18861-3 0  9997
2 61556  88.9788  74.3201 0006742 203.9224 156.1651 14.16325199 73973
QIANFAN-24              
1 61557U 24185F   26011.62132591  .00000674  00000+0  28801-3 0  9991
2 61557  88.9770  73.6720 0009218 186.6543 173.4528 14.23855860 74275
